IRIDIUM 63              
1 25286U 98021B   25106.53325310  .00000801  00000+0  26671-3 0  9992
2 25286  86.3931 108.0039 0002450  90.9736 269.1741 14.36480936414992
IRIDIUM 69              
1 25319U 98026A   25106.59581398  .00000899  00000+0  27433-3 0  9994
2 25319  86.3937 121.4563 0001708 157.8703 202.2570 14.40892359414199
IRIDIUM 71              
1 25320U 98026B   25106.54149140  .00000877  00000+0  26641-3 0  9992
2 25320  86.3930 116.1798 0000798  23.1001 337.0234 14.41089358414719
IRIDIUM 73              
1 25344U 98032C   25106.43829795  .00001613  00000+0  39774-3 0  9994
2 25344  86.4385  73.0383 0002194 102.8168 257.3282 14.51615201421608
IRIDIUM 82              
1 25467U 98051A   25106.57432120  .00034059  00000+0  10658-2 0  9997
2 25467  86.3668 139.9568 0092605 168.3460 191.9964 15.28780578414531
